CCSDS_OMM_VERS = 2.0
CREATION_DATE  = 
ORIGINATOR     = 

OBJECT_NAME    = STARLINK-35495
OBJECT_ID      = 2025-245K
CENTER_NAME    = EARTH
REF_FRAME      = TEME
TIME_SYSTEM    = UTC
MEAN_ELEMENT_THEORY = SGP/SGP4

EPOCH          = 2025-11-24T06:26:06.059616
MEAN_MOTION    = 15.49119579
ECCENTRICITY   = .0004075
INCLINATION    = 53.1602
RA_OF_ASC_NODE = 56.5766
ARG_OF_PERICENTER = 180.8066
MEAN_ANOMALY   = 179.2937

EPHEMERIS_TYPE = 0
CLASSIFICATION_TYPE = U
NORAD_CAT_ID   = 66243
ELEMENT_SET_NO = 999
REV_AT_EPOCH   = 507
BSTAR          = .24193E-2
MEAN_MOTION_DOT = .135579E-2
MEAN_MOTION_DDOT = 0

CCSDS_OMM_VERS = 2.0
CREATION_DATE  = 
ORIGINATOR     = 

OBJECT_NAME    = STARLINK-35517
OBJECT_ID      = 2025-245L
CENTER_NAME    = EARTH
REF_FRAME      = TEME
TIME_SYSTEM    = UTC
MEAN_ELEMENT_THEORY = SGP/SGP4

EPOCH          = 2025-11-23T06:00:02.000160
MEAN_MOTION    = 15.49335350
ECCENTRICITY   = .00014531
INCLINATION    = 53.1604
RA_OF_ASC_NODE = 61.4365
ARG_OF_PERICENTER = 90.5481
MEAN_ANOMALY   = 350.3754

EPHEMERIS_TYPE = 0
CLASSIFICATION_TYPE = U
NORAD_CAT_ID   = 66244
ELEMENT_SET_NO = 999
REV_AT_EPOCH   = 475
BSTAR          = -.54041173E-3
MEAN_MOTION_DOT = -.30415E-3
MEAN_MOTION_DDOT = 0

CCSDS_OMM_VERS = 2.0
CREATION_DATE  = 
ORIGINATOR     = 

OBJECT_NAME    = STARLINK-35503
OBJECT_ID      = 2025-245M
CENTER_NAME    = EARTH
REF_FRAME      = TEME
TIME_SYSTEM    = UTC
MEAN_ELEMENT_THEORY = SGP/SGP4

EPOCH          = 2025-11-24T09:30:14.271264
MEAN_MOTION    = 15.49312181
ECCENTRICITY   = .0001115
INCLINATION    = 53.1607
RA_OF_ASC_NODE = 55.9496
ARG_OF_PERICENTER = 44.1162
MEAN_ANOMALY   = 315.9936

EPHEMERIS_TYPE = 0
CLASSIFICATION_TYPE = U
NORAD_CAT_ID   = 66245
ELEMENT_SET_NO = 999
REV_AT_EPOCH   = 504
BSTAR          = .15267E-2
MEAN_MOTION_DOT = .85401E-3
MEAN_MOTION_DDOT = 0

CCSDS_OMM_VERS = 2.0
CREATION_DATE  = 
ORIGINATOR     = 

OBJECT_NAME    = STARLINK-35434
OBJECT_ID      = 2025-245N
CENTER_NAME    = EARTH
REF_FRAME      = TEME
TIME_SYSTEM    = UTC
MEAN_ELEMENT_THEORY = SGP/SGP4

EPOCH          = 2025-11-24T09:29:44.280096
MEAN_MOTION    = 15.49409718
ECCENTRICITY   = .0002207
INCLINATION    = 53.1605
RA_OF_ASC_NODE = 55.9453
ARG_OF_PERICENTER = 140.9629
MEAN_ANOMALY   = 219.1540

EPHEMERIS_TYPE = 0
CLASSIFICATION_TYPE = U
NORAD_CAT_ID   = 66246
ELEMENT_SET_NO = 999
REV_AT_EPOCH   = 488
BSTAR          = .18978E-2
MEAN_MOTION_DOT = .106936E-2
MEAN_MOTION_DDOT = 0

CCSDS_OMM_VERS = 2.0
CREATION_DATE  = 
ORIGINATOR     = 

OBJECT_NAME    = STARLINK-35481
OBJECT_ID      = 2025-245P
CENTER_NAME    = EARTH
REF_FRAME      = TEME
TIME_SYSTEM    = UTC
MEAN_ELEMENT_THEORY = SGP/SGP4

EPOCH          = 2025-11-24T09:29:15.421632
MEAN_MOTION    = 15.49319861
ECCENTRICITY   = .0000849
INCLINATION    = 53.1603
RA_OF_ASC_NODE = 55.9443
ARG_OF_PERICENTER = 78.5959
MEAN_ANOMALY   = 281.5146

EPHEMERIS_TYPE = 0
CLASSIFICATION_TYPE = U
NORAD_CAT_ID   = 66247
ELEMENT_SET_NO = 999
REV_AT_EPOCH   = 509
BSTAR          = .12574E-2
MEAN_MOTION_DOT = .70142E-3
MEAN_MOTION_DDOT = 0

CCSDS_OMM_VERS = 2.0
CREATION_DATE  = 
ORIGINATOR     = 

OBJECT_NAME    = STARLINK-35416
OBJECT_ID      = 2025-245Q
CENTER_NAME    = EARTH
REF_FRAME      = TEME
TIME_SYSTEM    = UTC
MEAN_ELEMENT_THEORY = SGP/SGP4

EPOCH          = 2025-11-24T09:28:45.031296
MEAN_MOTION    = 15.49400133
ECCENTRICITY   = .0001575
INCLINATION    = 53.1605
RA_OF_ASC_NODE = 55.9426
ARG_OF_PERICENTER = 127.4918
MEAN_ANOMALY   = 232.6235

EPHEMERIS_TYPE = 0
CLASSIFICATION_TYPE = U
NORAD_CAT_ID   = 66248
ELEMENT_SET_NO = 999
REV_AT_EPOCH   = 504
BSTAR          = .18826E-2
MEAN_MOTION_DOT = .106028E-2
MEAN_MOTION_DDOT = 0

CCSDS_OMM_VERS = 2.0
CREATION_DATE  = 
ORIGINATOR     = 

OBJECT_NAME    = STARLINK-35304
OBJECT_ID      = 2025-245R
CENTER_NAME    = EARTH
REF_FRAME      = TEME
TIME_SYSTEM    = UTC
MEAN_ELEMENT_THEORY = SGP/SGP4

EPOCH          = 2025-11-24T09:27:16.111008
MEAN_MOTION    = 15.49330268
ECCENTRICITY   = .0001106
INCLINATION    = 53.1605
RA_OF_ASC_NODE = 55.9353
ARG_OF_PERICENTER = 64.2275
MEAN_ANOMALY   = 295.8848

EPHEMERIS_TYPE = 0
CLASSIFICATION_TYPE = U
NORAD_CAT_ID   = 66249
ELEMENT_SET_NO = 999
REV_AT_EPOCH   = 488
BSTAR          = .18107E-2
MEAN_MOTION_DOT = .101652E-2
MEAN_MOTION_DDOT = 0

CCSDS_OMM_VERS = 2.0
CREATION_DATE  = 
ORIGINATOR     = 

OBJECT_NAME    = STARLINK-35338
OBJECT_ID      = 2025-245S
CENTER_NAME    = EARTH
REF_FRAME      = TEME
TIME_SYSTEM    = UTC
MEAN_ELEMENT_THEORY = SGP/SGP4

EPOCH          = 2025-11-24T09:28:15.537792
MEAN_MOTION    = 15.49317817
ECCENTRICITY   = .0001095
INCLINATION    = 53.1604
RA_OF_ASC_NODE = 55.9398
ARG_OF_PERICENTER = 45.5802
MEAN_ANOMALY   = 314.5297

EPHEMERIS_TYPE = 0
CLASSIFICATION_TYPE = U
NORAD_CAT_ID   = 66250
ELEMENT_SET_NO = 999
REV_AT_EPOCH   = 499
BSTAR          = .13688E-2
MEAN_MOTION_DOT = .76449E-3
MEAN_MOTION_DDOT = 0

CCSDS_OMM_VERS = 2.0
CREATION_DATE  = 
ORIGINATOR     = 

OBJECT_NAME    = STARLINK-35485
OBJECT_ID      = 2025-245T
CENTER_NAME    = EARTH
REF_FRAME      = TEME
TIME_SYSTEM    = UTC
MEAN_ELEMENT_THEORY = SGP/SGP4

EPOCH          = 2025-11-24T09:27:45.911232
MEAN_MOTION    = 15.49321854
ECCENTRICITY   = .0001082
INCLINATION    = 53.1605
RA_OF_ASC_NODE = 55.9376
ARG_OF_PERICENTER = 58.9338
MEAN_ANOMALY   = 301.1777

EPHEMERIS_TYPE = 0
CLASSIFICATION_TYPE = U
NORAD_CAT_ID   = 66251
ELEMENT_SET_NO = 999
REV_AT_EPOCH   = 488
BSTAR          = .14486E-2
MEAN_MOTION_DOT = .80995E-3
MEAN_MOTION_DDOT = 0

CCSDS_OMM_VERS = 2.0
CREATION_DATE  = 
ORIGINATOR     = 

OBJECT_NAME    = STARLINK-35483
OBJECT_ID      = 2025-245U
CENTER_NAME    = EARTH
REF_FRAME      = TEME
TIME_SYSTEM    = UTC
MEAN_ELEMENT_THEORY = SGP/SGP4

EPOCH          = 2025-11-24T09:26:46.494816
MEAN_MOTION    = 15.49320395
ECCENTRICITY   = .0001216
INCLINATION    = 53.1604
RA_OF_ASC_NODE = 55.9325
ARG_OF_PERICENTER = 50.0513
MEAN_ANOMALY   = 310.0602

EPHEMERIS_TYPE = 0
CLASSIFICATION_TYPE = U
NORAD_CAT_ID   = 66252
ELEMENT_SET_NO = 999
REV_AT_EPOCH   = 504
BSTAR          = .13853E-2
MEAN_MOTION_DOT = .77394E-3
MEAN_MOTION_DDOT = 0

CCSDS_OMM_VERS = 2.0
CREATION_DATE  = 
ORIGINATOR     = 

OBJECT_NAME    = STARLINK-35486
OBJECT_ID      = 2025-245V
CENTER_NAME    = EARTH
REF_FRAME      = TEME
TIME_SYSTEM    = UTC
MEAN_ELEMENT_THEORY = SGP/SGP4

EPOCH          = 2025-11-24T09:26:16.849248
MEAN_MOTION    = 15.49308498
ECCENTRICITY   = .0001128
INCLINATION    = 53.1604
RA_OF_ASC_NODE = 55.9301
ARG_OF_PERICENTER = 39.2840
MEAN_ANOMALY   = 320.8251

EPHEMERIS_TYPE = 0
CLASSIFICATION_TYPE = U
NORAD_CAT_ID   = 66253
ELEMENT_SET_NO = 999
REV_AT_EPOCH   = 488
BSTAR          = .14749E-2
MEAN_MOTION_DOT = .82448E-3
MEAN_MOTION_DDOT = 0

CCSDS_OMM_VERS = 2.0
CREATION_DATE  = 
ORIGINATOR     = 

OBJECT_NAME    = STARLINK-35488
OBJECT_ID      = 2025-245W
CENTER_NAME    = EARTH
REF_FRAME      = TEME
TIME_SYSTEM    = UTC
MEAN_ELEMENT_THEORY = SGP/SGP4

EPOCH          = 2025-11-24T09:25:47.059392
MEAN_MOTION    = 15.49374404
ECCENTRICITY   = .0000887
INCLINATION    = 53.1604
RA_OF_ASC_NODE = 55.9271
ARG_OF_PERICENTER = 105.3428
MEAN_ANOMALY   = 254.7680

EPHEMERIS_TYPE = 0
CLASSIFICATION_TYPE = U
NORAD_CAT_ID   = 66254
ELEMENT_SET_NO = 999
REV_AT_EPOCH   = 509
BSTAR          = .13409E-2
MEAN_MOTION_DOT = .75019E-3
MEAN_MOTION_DDOT = 0

