STARLINK-35495          
1 66243U 25245K   25328.26812569  .00135579  00000+0  24193-2 0  9998
2 66243  53.1602  56.5766 0004075 180.8066 179.2937 15.49119579  5071
STARLINK-35517          
1 66244U 25245L   25327.25002315 -.00030415  00000+0 -54041-3 0  9998
2 66244  53.1604  61.4365 0001453  90.5481 350.3754 15.49335350  4759
STARLINK-35503          
1 66245U 25245M   25328.39599851  .00085401  00000+0  15267-2 0  9990
2 66245  53.1607  55.9496 0001115  44.1162 315.9936 15.49312181  5041
STARLINK-35434          
1 66246U 25245N   25328.39565139  .00106936  00000+0  18978-2 0  9992
2 66246  53.1605  55.9453 0002207 140.9629 219.1540 15.49409718  4889
STARLINK-35481          
1 66247U 25245P   25328.39531738  .00070142  00000+0  12574-2 0  9996
2 66247  53.1603  55.9443 0000849  78.5959 281.5146 15.49319861  5097
STARLINK-35416          
1 66248U 25245Q   25328.39496564  .00106028  00000+0  18826-2 0  9993
2 66248  53.1605  55.9426 0001575 127.4918 232.6235 15.49400133  5041
STARLINK-35304          
1 66249U 25245R   25328.39393647  .00101652  00000+0  18107-2 0  9992
2 66249  53.1605  55.9353 0001106  64.2275 295.8848 15.49330268  4888
STARLINK-35338          
1 66250U 25245S   25328.39462428  .00076449  00000+0  13688-2 0  9992
2 66250  53.1604  55.9398 0001095  45.5802 314.5297 15.49317817  4997
STARLINK-35485          
1 66251U 25245T   25328.39428138  .00080995  00000+0  14486-2 0  9991
2 66251  53.1605  55.9376 0001082  58.9338 301.1777 15.49321854  4882
STARLINK-35483          
1 66252U 25245U   25328.39359369  .00077394  00000+0  13853-2 0  9997
2 66252  53.1604  55.9325 0001216  50.0513 310.0602 15.49320395  5047
STARLINK-35486          
1 66253U 25245V   25328.39325057  .00082448  00000+0  14749-2 0  9996
2 66253  53.1604  55.9301 0001128  39.2840 320.8251 15.49308498  4886
STARLINK-35488          
1 66254U 25245W   25328.39290578  .00075019  00000+0  13409-2 0  9994
2 66254  53.1604  55.9271 0000887 105.3428 254.7680 15.49374404  5096
